{
  "type": "FeatureCollection",
  "features": [
    {
      "type": "Feature",
      "properties": {
        "norad_id": 44334,
        "name": "EUTELSAT 7C",
        "group": "eutelsat",
        "lat": -0.01017481622971855,
        "lon": 159.3859718149475,
        "alt_km": 35788.225759944966,
        "timestamp": "2025-12-26T03:50:11.759219+00:00",
        "meta_object_name": "EUTELSAT 7C",
        "meta_object_id": "2019-034B",
        "meta_epoch": "2025-12-24T14:50:38.546016",
        "meta_mean_motion": 1.00270796,
        "meta_eccentricity": 0.00031593,
        "meta_inclination": 0.0726,
        "meta_ra_of_asc_node": 177.7928,
        "meta_arg_of_pericenter": 79.9691,
        "meta_mean_anomaly": 65.2631,
        "meta_ephemeris_type": 0,
        "meta_classification_type": "U",
        "meta_norad_cat_id": 44334,
        "meta_element_set_no": 999,
        "meta_rev_at_epoch": 508,
        "meta_bstar": 0,
        "meta_mean_motion_dot": 6.9e-07,
        "meta_mean_motion_ddot": 0,
        "tle_line1": "1 44334U 19034B   25358.61850169  .00000069  00000+0  00000+0 0  9997",
        "tle_line2": "2 44334   0.0726 177.7928 0003159  79.9691  65.2631  1.00270796  5083"
      },
      "geometry": {
        "type": "Point",
        "coordinates": [
          159.3859718149475,
          -0.01017481622971855
        ]
      }
    },
    {
      "type": "Feature",
      "properties": {
        "norad_id": 44624,
        "name": "EUTELSAT 5 WEST B",
        "group": "eutelsat",
        "lat": 0.03139297324813455,
        "lon": 147.42187354085976,
        "alt_km": 35794.123932424794,
        "timestamp": "2025-12-26T03:50:11.759231+00:00",
        "meta_object_name": "EUTELSAT 5 WEST B",
        "meta_object_id": "2019-067A",
        "meta_epoch": "2025-12-25T18:10:42.798720",
        "meta_mean_motion": 1.00271274,
        "meta_eccentricity": 0.0003184,
        "meta_inclination": 0.0627,
        "meta_ra_of_asc_node": 345.6151,
        "meta_arg_of_pericenter": 287.7229,
        "meta_mean_anomaly": 88.854,
        "meta_ephemeris_type": 0,
        "meta_classification_type": "U",
        "meta_norad_cat_id": 44624,
        "meta_element_set_no": 999,
        "meta_rev_at_epoch": 2269,
        "meta_bstar": 0,
        "meta_mean_motion_dot": -2.1e-07,
        "meta_mean_motion_ddot": 0,
        "tle_line1": "1 44624U 19067A   25359.75743980 -.00000021  00000+0  00000+0 0  9992",
        "tle_line2": "2 44624   0.0627 345.6151 0003184 287.7229  88.8540  1.00271274 22691"
      },
      "geometry": {
        "type": "Point",
        "coordinates": [
          147.42187354085976,
          0.03139297324813455
        ]
      }
    },
    {
      "type": "Feature",
      "properties": {
        "norad_id": 45027,
        "name": "EUTELSAT KONNECT",
        "group": "eutelsat",
        "lat": 0.0733434916130751,
        "lon": 159.62105836136482,
        "alt_km": 35792.25037887214,
        "timestamp": "2025-12-26T03:50:11.759243+00:00",
        "meta_object_name": "EUTELSAT KONNECT",
        "meta_object_id": "2020-005B",
        "meta_epoch": "2025-12-24T23:24:19.351008",
        "meta_mean_motion": 1.00267204,
        "meta_eccentricity": 0.0001571,
        "meta_inclination": 0.069,
        "meta_ra_of_asc_node": 93.7711,
        "meta_arg_of_pericenter": 204.5991,
        "meta_mean_anomaly": 153.6522,
        "meta_ephemeris_type": 0,
        "meta_classification_type": "U",
        "meta_norad_cat_id": 45027,
        "meta_element_set_no": 999,
        "meta_rev_at_epoch": 2259,
        "meta_bstar": 0,
        "meta_mean_motion_dot": 7e-07,
        "meta_mean_motion_ddot": 0,
        "tle_line1": "1 45027U 20005B   25358.97522397  .00000070  00000+0  00000+0 0  9997",
        "tle_line2": "2 45027   0.0690  93.7711 0001571 204.5991 153.6522  1.00267204 22591"
      },
      "geometry": {
        "type": "Point",
        "coordinates": [
          159.62105836136482,
          0.0733434916130751
        ]
      }
    },
    {
      "type": "Feature",
      "properties": {
        "norad_id": 49056,
        "name": "EUTELSAT QUANTUM",
        "group": "eutelsat",
        "lat": -0.0033411281653368623,
        "lon": -159.88913257343597,
        "alt_km": 35784.21610718941,
        "timestamp": "2025-12-26T03:50:11.759254+00:00",
        "meta_object_name": "EUTELSAT QUANTUM",
        "meta_object_id": "2021-069B",
        "meta_epoch": "2025-12-25T01:54:38.767104",
        "meta_mean_motion": 1.00270981,
        "meta_eccentricity": 0.0003521,
        "meta_inclination": 0.0117,
        "meta_ra_of_asc_node": 16.1533,
        "meta_arg_of_pericenter": 266.4421,
        "meta_mean_anomaly": 247.6123,
        "meta_ephemeris_type": 0,
        "meta_classification_type": "U",
        "meta_norad_cat_id": 49056,
        "meta_element_set_no": 999,
        "meta_rev_at_epoch": 1618,
        "meta_bstar": 0,
        "meta_mean_motion_dot": 1.47e-06,
        "meta_mean_motion_ddot": 0,
        "tle_line1": "1 49056U 21069B   25359.07961536  .00000147  00000+0  00000+0 0  9993",
        "tle_line2": "2 49056   0.0117  16.1533 0003521 266.4421 247.6123  1.00270981 16189"
      },
      "geometry": {
        "type": "Point",
        "coordinates": [
          -159.88913257343597,
          -0.0033411281653368623
        ]
      }
    },
    {
      "type": "Feature",
      "properties": {
        "norad_id": 53765,
        "name": "EUTELSAT KONNECT VHTS",
        "group": "eutelsat",
        "lat": 0.06143550297706587,
        "lon": 155.1228510004884,
        "alt_km": 35788.04050041227,
        "timestamp": "2025-12-26T03:50:11.759266+00:00",
        "meta_object_name": "EUTELSAT KONNECT VHTS",
        "meta_object_id": "2022-110A",
        "meta_epoch": "2025-12-25T13:04:49.589760",
        "meta_mean_motion": 1.00267512,
        "meta_eccentricity": 0.0002526,
        "meta_inclination": 0.0614,
        "meta_ra_of_asc_node": 98.0209,
        "meta_arg_of_pericenter": 151.222,
        "meta_mean_anomaly": 43.9766,
        "meta_ephemeris_type": 0,
        "meta_classification_type": "U",
        "meta_norad_cat_id": 53765,
        "meta_element_set_no": 999,
        "meta_rev_at_epoch": 508,
        "meta_bstar": 0,
        "meta_mean_motion_dot": 3.8e-07,
        "meta_mean_motion_ddot": 0,
        "tle_line1": "1 53765U 22110A   25359.54501840  .00000038  00000+0  00000+0 0  9992",
        "tle_line2": "2 53765   0.0614  98.0209 0002526 151.2220  43.9766  1.00267512  5087"
      },
      "geometry": {
        "type": "Point",
        "coordinates": [
          155.1228510004884,
          0.06143550297706587
        ]
      }
    },
    {
      "type": "Feature",
      "properties": {
        "norad_id": 54048,
        "name": "EUTELSAT HOTBIRD 13F",
        "group": "eutelsat",
        "lat": -0.03325837603545891,
        "lon": 165.44891115149798,
        "alt_km": 35795.19075937991,
        "timestamp": "2025-12-26T03:50:11.759278+00:00",
        "meta_object_name": "EUTELSAT HOTBIRD 13F",
        "meta_object_id": "2022-134A",
        "meta_epoch": "2025-12-24T23:25:56.697024",
        "meta_mean_motion": 1.00270775,
        "meta_eccentricity": 0.0002211,
        "meta_inclination": 0.0545,
        "meta_ra_of_asc_node": 289.4002,
        "meta_arg_of_pericenter": 71.817,
        "meta_mean_anomaly": 97.0057,
        "meta_ephemeris_type": 0,
        "meta_classification_type": "U",
        "meta_norad_cat_id": 54048,
        "meta_element_set_no": 999,
        "meta_rev_at_epoch": 1163,
        "meta_bstar": 0,
        "meta_mean_motion_dot": 1.08e-06,
        "meta_mean_motion_ddot": 0,
        "tle_line1": "1 54048U 22134A   25358.97635066  .00000108  00000+0  00000+0 0  9995",
        "tle_line2": "2 54048   0.0545 289.4002 0002211  71.8170  97.0057  1.00270775 11630"
      },
      "geometry": {
        "type": "Point",
        "coordinates": [
          165.44891115149798,
          -0.03325837603545891
        ]
      }
    },
    {
      "type": "Feature",
      "properties": {
        "norad_id": 54225,
        "name": "EUTELSAT HOTBIRD 13G",
        "group": "eutelsat",
        "lat": -0.033474535446913305,
        "lon": 165.4235232216494,
        "alt_km": 35779.612478438205,
        "timestamp": "2025-12-26T03:50:11.759290+00:00",
        "meta_object_name": "EUTELSAT HOTBIRD 13G",
        "meta_object_id": "2022-146A",
        "meta_epoch": "2025-12-24T00:28:38.654112",
        "meta_mean_motion": 1.00268836,
        "meta_eccentricity": 0.00017131,
        "meta_inclination": 0.0535,
        "meta_ra_of_asc_node": 227.8066,
        "meta_arg_of_pericenter": 307.349,
        "meta_mean_anomaly": 297.8001,
        "meta_ephemeris_type": 0,
        "meta_classification_type": "U",
        "meta_norad_cat_id": 54225,
        "meta_element_set_no": 999,
        "meta_rev_at_epoch": 571,
        "meta_bstar": 0,
        "meta_mean_motion_dot": 1.08e-06,
        "meta_mean_motion_ddot": 0,
        "tle_line1": "1 54225U 22146A   25358.01989183  .00000108  00000+0  00000+0 0  9992",
        "tle_line2": "2 54225   0.0535 227.8066 0001713 307.3490 297.8001  1.00268836  5716"
      },
      "geometry": {
        "type": "Point",
        "coordinates": [
          165.4235232216494,
          -0.033474535446913305
        ]
      }
    }
  ]
}